STARLINK-34678          
1 65443U 25194K   26079.17783761  .00009071  00000+0  63209-3 0  9996
2 65443  97.6024 294.6972 0002376  76.8526 283.2966 15.05649185 31221
STARLINK-35049          
1 65444U 25194L   26079.16397050  .00003475  00000+0  24487-3 0  9995
2 65444  97.6018 294.7118 0001684  83.3184 276.8234 15.05654378 31228
STARLINK-35029          
1 65445U 25194M   26079.15843999  .00001241  00000+0  90214-4 0  9994
2 65445  97.6025 294.7180 0001366  76.0012 284.1367 15.05654164 31224
STARLINK-34991          
1 65446U 25194N   26079.15012799  .00003473  00000+0  24477-3 0  9997
2 65446  97.6018 294.7327 0001877  80.7439 279.4000 15.05653708 31226
STARLINK-34920          
1 65447U 25194P   26079.13904979  .00002154  00000+0  15340-3 0  9990
2 65447  97.6019 294.7467 0001078 102.7498 257.3849 15.05661279 31224
STARLINK-35030          
1 65448U 25194Q   26079.16950921  .00002862  00000+0  20245-3 0  9998
2 65448  97.6009 294.7065 0001873  78.4372 281.7065 15.05652221 31229
STARLINK-35009          
1 65449U 25194R   26079.19720411  .00003240  00000+0  22859-3 0  9995
2 65449  97.6019 294.8251 0001780  77.7992 282.3434 15.05657026 31232
STARLINK-34970          
1 65450U 25194S   26079.19166430  .00004068  00000+0  28581-3 0  9999
2 65450  97.6020 294.6785 0002095  67.0637 293.0810 15.05667136 31223
STARLINK-35039          
1 65451U 25194T   26079.16120812  .00003428  00000+0  24157-3 0  9995
2 65451  97.6017 294.7163 0001992  82.3799 277.7654 15.05662610 31222
STARLINK-35084          
1 65452U 25194U   26079.17504628  .00002904  00000+0  20534-3 0  9991
2 65452  97.6021 294.7012 0002531  85.6293 274.5223 15.05654606 31229
STARLINK-34988          
1 65453U 25194V   26079.14478843  .00004200  00000+0  33129-3 0  9993
2 65453  97.6034 295.7286 0003047  43.0991 317.0471 15.01259535 31286
STARLINK-35059          
1 65454U 25194W   26079.14798123  .00002213  00000+0  17679-3 0  9994
2 65454  97.6032 295.2504 0002141  72.3365 287.8093 15.01264113 31256
STARLINK-34728          
1 65455U 25194X   26079.18611822  .00001528  00000+0  11006-3 0  9995
2 65455  97.6016 294.6872 0002274  87.0916 273.0571 15.05657640 31222
STARLINK-35005          
1 65456U 25194Y   26079.13353058  .00006768  00000+0  47280-3 0  9999
2 65456  97.6018 294.7565 0001632  87.1498 272.9915 15.05651121 31226
STARLINK-35076          
1 65457U 25194Z   26079.18058302  .00002384  00000+0  16943-3 0  9991
2 65457  97.6023 294.6944 0001733  83.3694 276.7730 15.05636771 31222
STARLINK-34784          
1 65458U 25195A   26078.66284131  .00014037  00000+0  48514-3 0  9993
2 65458  53.1558 211.6435 0000613 353.4778   6.6214 15.30201552 31520
