[{"OBJECT_NAME":"STARLINK-34678","OBJECT_ID":"2025-194K","EPOCH":"2026-03-20T04:16:05.169504","MEAN_MOTION":15.05649185,"ECCENTRICITY":0.00023769,"INCLINATION":97.6024,"RA_OF_ASC_NODE":294.6972,"ARG_OF_PERICENTER":76.8526,"MEAN_ANOMALY":283.2966,"EPHEMERIS_TYPE":0,"CLASSIFICATION_TYPE":"U","NORAD_CAT_ID":65443,"ELEMENT_SET_NO":999,"REV_AT_EPOCH":3122,"BSTAR":0.0006320937,"MEAN_MOTION_DOT":9.071e-5,"MEAN_MOTION_DDOT":0},{"OBJECT_NAME":"STARLINK-35049","OBJECT_ID":"2025-194L","EPOCH":"2026-03-20T03:56:07.051200","MEAN_MOTION":15.05654378,"ECCENTRICITY":0.00016842,"INCLINATION":97.6018,"RA_OF_ASC_NODE":294.7118,"ARG_OF_PERICENTER":83.3184,"MEAN_ANOMALY":276.8234,"EPHEMERIS_TYPE":0,"CLASSIFICATION_TYPE":"U","NORAD_CAT_ID":65444,"ELEMENT_SET_NO":999,"REV_AT_EPOCH":3122,"BSTAR":0.00024487081,"MEAN_MOTION_DOT":3.475e-5,"MEAN_MOTION_DDOT":0},{"OBJECT_NAME":"STARLINK-35029","OBJECT_ID":"2025-194M","EPOCH":"2026-03-20T03:48:09.215136","MEAN_MOTION":15.05654164,"ECCENTRICITY":0.00013665,"INCLINATION":97.6025,"RA_OF_ASC_NODE":294.718,"ARG_OF_PERICENTER":76.0012,"MEAN_ANOMALY":284.1367,"EPHEMERIS_TYPE":0,"CLASSIFICATION_TYPE":"U","NORAD_CAT_ID":65445,"ELEMENT_SET_NO":999,"REV_AT_EPOCH":3122,"BSTAR":9.0213656e-5,"MEAN_MOTION_DOT":1.241e-5,"MEAN_MOTION_DDOT":0},{"OBJECT_NAME":"STARLINK-34991","OBJECT_ID":"2025-194N","EPOCH":"2026-03-20T03:36:11.058336","MEAN_MOTION":15.05653708,"ECCENTRICITY":0.00018773,"INCLINATION":97.6018,"RA_OF_ASC_NODE":294.7327,"ARG_OF_PERICENTER":80.7439,"MEAN_ANOMALY":279.4,"EPHEMERIS_TYPE":0,"CLASSIFICATION_TYPE":"U","NORAD_CAT_ID":65446,"ELEMENT_SET_NO":999,"REV_AT_EPOCH":3122,"BSTAR":0.00024477449,"MEAN_MOTION_DOT":3.473e-5,"MEAN_MOTION_DDOT":0},{"OBJECT_NAME":"STARLINK-34920","OBJECT_ID":"2025-194P","EPOCH":"2026-03-20T03:20:13.901856","MEAN_MOTION":15.05661279,"ECCENTRICITY":0.00010788,"INCLINATION":97.6019,"RA_OF_ASC_NODE":294.7467,"ARG_OF_PERICENTER":102.7498,"MEAN_ANOMALY":257.3849,"EPHEMERIS_TYPE":0,"CLASSIFICATION_TYPE":"U","NORAD_CAT_ID":65447,"ELEMENT_SET_NO":999,"REV_AT_EPOCH":3122,"BSTAR":0.00015339936,"MEAN_MOTION_DOT":2.154e-5,"MEAN_MOTION_DDOT":0},{"OBJECT_NAME":"STARLINK-35030","OBJECT_ID":"2025-194Q","EPOCH":"2026-03-20T04:04:05.595744","MEAN_MOTION":15.05652221,"ECCENTRICITY":0.00018732,"INCLINATION":97.6009,"RA_OF_ASC_NODE":294.7065,"ARG_OF_PERICENTER":78.4372,"MEAN_ANOMALY":281.7065,"EPHEMERIS_TYPE":0,"CLASSIFICATION_TYPE":"U","NORAD_CAT_ID":65448,"ELEMENT_SET_NO":999,"REV_AT_EPOCH":3122,"BSTAR":0.00020245237,"MEAN_MOTION_DOT":2.862e-5,"MEAN_MOTION_DDOT":0},{"OBJECT_NAME":"STARLINK-35009","OBJECT_ID":"2025-194R","EPOCH":"2026-03-20T04:43:58.435104","MEAN_MOTION":15.05657026,"ECCENTRICITY":0.00017801,"INCLINATION":97.6019,"RA_OF_ASC_NODE":294.8251,"ARG_OF_PERICENTER":77.7992,"MEAN_ANOMALY":282.3434,"EPHEMERIS_TYPE":0,"CLASSIFICATION_TYPE":"U","NORAD_CAT_ID":65449,"ELEMENT_SET_NO":999,"REV_AT_EPOCH":3123,"BSTAR":0.00022858689,"MEAN_MOTION_DOT":3.24e-5,"MEAN_MOTION_DDOT":0},{"OBJECT_NAME":"STARLINK-34970","OBJECT_ID":"2025-194S","EPOCH":"2026-03-20T04:35:59.795520","MEAN_MOTION":15.05667136,"ECCENTRICITY":0.00020952,"INCLINATION":97.602,"RA_OF_ASC_NODE":294.6785,"ARG_OF_PERICENTER":67.0637,"MEAN_ANOMALY":293.081,"EPHEMERIS_TYPE":0,"CLASSIFICATION_TYPE":"U","NORAD_CAT_ID":65450,"ELEMENT_SET_NO":999,"REV_AT_EPOCH":3122,"BSTAR":0.00028581394,"MEAN_MOTION_DOT":4.068e-5,"MEAN_MOTION_DDOT":0},{"OBJECT_NAME":"STARLINK-35039","OBJECT_ID":"2025-194T","EPOCH":"2026-03-20T03:52:08.381568","MEAN_MOTION":15.0566261,"ECCENTRICITY":0.0001992,"INCLINATION":97.6017,"RA_OF_ASC_NODE":294.7163,"ARG_OF_PERICENTER":82.3799,"MEAN_ANOMALY":277.7654,"EPHEMERIS_TYPE":0,"CLASSIFICATION_TYPE":"U","NORAD_CAT_ID":65451,"ELEMENT_SET_NO":999,"REV_AT_EPOCH":3122,"BSTAR":0.00024157087,"MEAN_MOTION_DOT":3.428e-5,"MEAN_MOTION_DDOT":0},{"OBJECT_NAME":"STARLINK-35084","OBJECT_ID":"2025-194U","EPOCH":"2026-03-20T04:12:03.998592","MEAN_MOTION":15.05654606,"ECCENTRICITY":0.00025315,"INCLINATION":97.6021,"RA_OF_ASC_NODE":294.7012,"ARG_OF_PERICENTER":85.6293,"MEAN_ANOMALY":274.5223,"EPHEMERIS_TYPE":0,"CLASSIFICATION_TYPE":"U","NORAD_CAT_ID":65452,"ELEMENT_SET_NO":999,"REV_AT_EPOCH":3122,"BSTAR":0.00020534052,"MEAN_MOTION_DOT":2.904e-5,"MEAN_MOTION_DDOT":0},{"OBJECT_NAME":"STARLINK-34988","OBJECT_ID":"2025-194V","EPOCH":"2026-03-20T03:28:29.720352","MEAN_MOTION":15.01259535,"ECCENTRICITY":0.00030472,"INCLINATION":97.6034,"RA_OF_ASC_NODE":295.7286,"ARG_OF_PERICENTER":43.0991,"MEAN_ANOMALY":317.0471,"EPHEMERIS_TYPE":0,"CLASSIFICATION_TYPE":"U","NORAD_CAT_ID":65453,"ELEMENT_SET_NO":999,"REV_AT_EPOCH":3128,"BSTAR":0.00033129058,"MEAN_MOTION_DOT":4.2e-5,"MEAN_MOTION_DDOT":0},{"OBJECT_NAME":"STARLINK-35059","OBJECT_ID":"2025-194W","EPOCH":"2026-03-20T03:33:05.578272","MEAN_MOTION":15.01264113,"ECCENTRICITY":0.00021414,"INCLINATION":97.6032,"RA_OF_ASC_NODE":295.2504,"ARG_OF_PERICENTER":72.3365,"MEAN_ANOMALY":287.8093,"EPHEMERIS_TYPE":0,"CLASSIFICATION_TYPE":"U","NORAD_CAT_ID":65454,"ELEMENT_SET_NO":999,"REV_AT_EPOCH":3125,"BSTAR":0.00017678692,"MEAN_MOTION_DOT":2.213e-5,"MEAN_MOTION_DDOT":0},{"OBJECT_NAME":"STARLINK-34728","OBJECT_ID":"2025-194X","EPOCH":"2026-03-20T04:28:00.614208","MEAN_MOTION":15.0565764,"ECCENTRICITY":0.00022741,"INCLINATION":97.6016,"RA_OF_ASC_NODE":294.6872,"ARG_OF_PERICENTER":87.0916,"MEAN_ANOMALY":273.0571,"EPHEMERIS_TYPE":0,"CLASSIFICATION_TYPE":"U","NORAD_CAT_ID":65455,"ELEMENT_SET_NO":999,"REV_AT_EPOCH":3122,"BSTAR":0.00011005511,"MEAN_MOTION_DOT":1.528e-5,"MEAN_MOTION_DDOT":0},{"OBJECT_NAME":"STARLINK-35005","OBJECT_ID":"2025-194Y","EPOCH":"2026-03-20T03:12:17.042112","MEAN_MOTION":15.05651121,"ECCENTRICITY":0.00016326,"INCLINATION":97.6018,"RA_OF_ASC_NODE":294.7565,"ARG_OF_PERICENTER":87.1498,"MEAN_ANOMALY":272.9915,"EPHEMERIS_TYPE":0,"CLASSIFICATION_TYPE":"U","NORAD_CAT_ID":65456,"ELEMENT_SET_NO":999,"REV_AT_EPOCH":3122,"BSTAR":0.000472802,"MEAN_MOTION_DOT":6.768e-5,"MEAN_MOTION_DDOT":0},{"OBJECT_NAME":"STARLINK-35076","OBJECT_ID":"2025-194Z","EPOCH":"2026-03-20T04:20:02.372928","MEAN_MOTION":15.05636771,"ECCENTRICITY":0.00017332,"INCLINATION":97.6023,"RA_OF_ASC_NODE":294.6944,"ARG_OF_PERICENTER":83.3694,"MEAN_ANOMALY":276.773,"EPHEMERIS_TYPE":0,"CLASSIFICATION_TYPE":"U","NORAD_CAT_ID":65457,"ELEMENT_SET_NO":999,"REV_AT_EPOCH":3122,"BSTAR":0.00016943064,"MEAN_MOTION_DOT":2.384e-5,"MEAN_MOTION_DDOT":0},{"OBJECT_NAME":"STARLINK-34784","OBJECT_ID":"2025-195A","EPOCH":"2026-03-19T15:54:29.489184","MEAN_MOTION":15.30201552,"ECCENTRICITY":6.137e-5,"INCLINATION":53.1558,"RA_OF_ASC_NODE":211.6435,"ARG_OF_PERICENTER":353.4778,"MEAN_ANOMALY":6.6214,"EPHEMERIS_TYPE":0,"CLASSIFICATION_TYPE":"U","NORAD_CAT_ID":65458,"ELEMENT_SET_NO":999,"REV_AT_EPOCH":3152,"BSTAR":0.00048513528,"MEAN_MOTION_DOT":0.00014037,"MEAN_MOTION_DDOT":0}]
